NORAD_CAT_ID,OBJECT_NAME,OBJECT_TYPE,EPOCH,MEAN_MOTION,ECCENTRICITY,INCLINATION,RA_OF_ASC_NODE,ARG_OF_PERICENTER,MEAN_ANOMALY,BSTAR,MEAN_MOTION_DOT,MEAN_MOTION_DDOT,TLE_LINE0,TLE_LINE1,TLE_LINE2,SEMIMAJOR_AXIS,PERIOD,APOGEE,PERIGEE,DECAYED
54200.0,STARLINK-5250,PAYLOAD,2023-07-24 08:25:23,15.08834146,0.0001207,53.2191,340.5261,100.2475,259.8653,8.3214e-05,1.037e-05,0.0,0 STARLINK-5250,1 54200U 22141AV  23205.35096447  .00001037  00000-0  83214-4 0  9994,2 54200  53.2191 340.5261 0001207 100.2475 259.8653 15.08834146 41175,6917.898,95.438,540.598,538.928,0.0
54200.0,STARLINK-5250,PAYLOAD,2023-07-25 11:26:56,15.08839622,0.0002265,53.213,335.4737,69.4278,290.6957,-1.3266e-05,-4.99e-06,0.0,0 STARLINK-5250,1 54200U 22141AV  23206.47704651 -.00000499  00000-0 -13266-4 0  9994,2 54200  53.2130 335.4737 0002265  69.4278 290.6957 15.08839622 41344,6917.882,95.438,541.313,538.18,0.0
54200.0,STARLINK-5250,PAYLOAD,2023-07-26 11:17:43,15.0884665,0.0001232,53.2182,331.0116,70.9029,289.2096,2.6693e-05,1.37e-06,0.0,0 STARLINK-5250,1 54200U 22141AV  23207.47064322  .00000137  00000-0  26693-4 0  9994,2 54200  53.2182 331.0116 0001232  70.9029 289.2096 15.08846650 41491,6917.86,95.437,540.577,538.873,0.0
54200.0,STARLINK-5250,PAYLOAD,2023-07-26 17:39:15,15.08852644,0.00019,53.2179,329.8254,53.3547,306.762,8.6442e-05,1.088e-05,0.0,0 STARLINK-5250,1 54200U 22141AV  23207.73559832  .00001088  00000-0  86442-4 0  9992,2 54200  53.2179 329.8254 0001900  53.3547 306.7620 15.08852644 41530,6917.842,95.437,541.021,538.392,0.0
54200.0,STARLINK-5250,PAYLOAD,2023-07-27 01:36:11,15.0883454,0.0001734,53.2167,328.3409,46.1501,313.9634,0.0002776,4.132e-05,0.0,0 STARLINK-5250,1 54200U 22141AV  23208.06680422  .00004132  00000-0  27760-3 0  9999,2 54200  53.2167 328.3409 0001734  46.1501 313.9634 15.08834540 41819,6917.897,95.438,540.962,538.563,0.0
54200.0,STARLINK-5250,PAYLOAD,2023-07-27 14:19:16,15.08843318,0.000107,53.2181,325.9558,91.5394,268.572,3.2714e-05,2.33e-06,0.0,0 STARLINK-5250,1 54200U 22141AV  23208.59672263  .00000233  00000-0  32714-4 0  9995,2 54200  53.2181 325.9558 0001070  91.5394 268.5720 15.08843318 41667,6917.87,95.437,540.475,538.995,0.0
54200.0,STARLINK-5250,PAYLOAD,2023-07-27 19:05:26,15.08841623,0.0001313,53.2174,325.0662,53.6835,306.4278,0.00011011,1.465e-05,0.0,0 STARLINK-5250,1 54200U 22141AV  23208.79544285  .00001465  00000-0  11011-3 0  9993,2 54200  53.2174 325.0662 0001313  53.6835 306.4278 15.08841623 41695,6917.875,95.437,540.649,538.832,0.0
54200.0,STARLINK-5250,PAYLOAD,2023-07-28 01:26:59,15.08834797,0.0001276,53.2165,323.8759,79.441,280.6726,-5.12e-05,-1.103e-05,0.0,0 STARLINK-5250,1 54200U 22141AV  23209.06040970 -.00001103  00000-0 -51200-4 0  9992,2 54200  53.2165 323.8759 0001276  79.4410 280.6726 15.08834797 41966,6917.896,95.438,540.644,538.879,0.0
54200.0,STARLINK-5250,PAYLOAD,2023-07-28 14:10:04,15.08839793,9.7e-05,53.2179,321.4934,89.6907,270.4196,-8.5411e-05,-1.647e-05,0.0,0 STARLINK-5250,1 54200U 22141AV  23209.59032857 -.00001647  00000-0 -85411-4 0  9999,2 54200  53.2179 321.4934 0000970  89.6907 270.4196 15.08839793 41817,6917.881,95.438,540.417,539.075,0.0
54200.0,STARLINK-5250,PAYLOAD,2023-07-28 18:56:13,15.08844128,0.0001092,53.2172,320.6009,86.2678,273.8439,-4.5327e-05,-1.009e-05,0.0,0 STARLINK-5250,1 54200U 22141AV  23209.78904425 -.00001009  00000-0 -45327-4 0  9993,2 54200  53.2172 320.6009 0001092  86.2678 273.8439 15.08844128 42072,6917.868,95.437,540.488,538.977,0.0
54200.0,STARLINK-5250,PAYLOAD,2023-07-29 18:46:59,15.08849253,0.0001424,53.2159,316.1406,106.2205,253.8944,0.00014667,2.048e-05,0.0,0 STARLINK-5250,1 54200U 22141AV  23210.78263714  .00002048  00000-0  14667-3 0  9998,2 54200  53.2159 316.1406 0001424 106.2205 253.8944 15.08849253 42226,6917.852,95.437,540.702,538.732,0.0
54200.0,STARLINK-5250,PAYLOAD,2023-07-30 10:40:52,15.08836299,0.0001364,53.2171,313.1677,96.2279,263.8869,5.9342e-05,6.57e-06,0.0,0 STARLINK-5250,1 54200U 22141AV  23211.44504923  .00000657  00000-0  59342-4 0  9996,2 54200  53.2171 313.1677 0001364  96.2279 263.8869 15.08836299 42323,6917.892,95.438,540.7,538.813,0.0
54200.0,STARLINK-5250,PAYLOAD,2023-07-31 10:31:38,15.08845931,0.0001296,53.218,308.7058,96.9537,263.1603,6.7868e-05,7.93e-06,0.0,0 STARLINK-5250,1 54200U 22141AV  23212.43864441  .00000793  00000-0  67868-4 0  9993,2 54200  53.2180 308.7058 0001296  96.9537 263.1603 15.08845931 42472,6917.862,95.437,540.624,538.831,0.0
54200.0,STARLINK-5250,PAYLOAD,2023-07-31 16:53:11,15.0885545,0.0001244,53.218,307.5194,87.8678,272.2457,0.00031514,4.733e-05,0.0,0 STARLINK-5250,1 54200U 22141AV  23212.70360065  .00004733  00000-0  31514-3 0  9992,2 54200  53.2180 307.5194 0001244  87.8678 272.2457 15.08855450 42518,6917.833,95.437,540.559,538.838,0.0
54200.0,STARLINK-5250,PAYLOAD,2023-08-02 13:23:59,15.08843239,0.0001241,53.2168,299.1937,86.4527,273.6607,0.00015086,2.114e-05,0.0,0 STARLINK-5250,1 54200U 22141AV  23214.55832912  .00002114  00000-0  15086-3 0  9999,2 54200  53.2168 299.1937 0001241  86.4527 273.6607 15.08843239 42794,6917.87,95.437,540.594,538.877,0.0
54200.0,STARLINK-5250,PAYLOAD,2023-08-03 10:04:00,15.08842309,0.0001279,53.216,295.3281,81.1667,278.947,0.00022023,3.219e-05,0.0,0 STARLINK-5250,1 54200U 22141AV  23215.41945242  .00003219  00000-0  22023-3 0  9992,2 54200  53.2160 295.3281 0001279  81.1667 278.9470 15.08842309 42922,6917.873,95.437,540.623,538.854,0.0
54200.0,STARLINK-5250,PAYLOAD,2023-08-04 16:16:20,15.08839317,0.0001146,53.2165,289.6773,84.2946,275.8177,0.00017788,2.544e-05,0.0,0 STARLINK-5250,1 54200U 22141AV  23216.67801283  .00002544  00000-0  17788-3 0  9999,2 54200  53.2165 289.6773 0001146  84.2946 275.8177 15.08839317 43113,6917.882,95.438,540.54,538.955,0.0
54200.0,STARLINK-5250,PAYLOAD,2023-08-05 14:31:42,15.08858564,0.0001374,53.2169,285.5134,98.8803,261.2345,0.00019677,2.847e-05,0.0,0 STARLINK-5250,1 54200U 22141AV  23217.60535859  .00002847  00000-0  19677-3 0  9991,2 54200  53.2169 285.5134 0001374  98.8803 261.2345 15.08858564 43255,6917.824,95.436,540.639,538.738,0.0
54200.0,STARLINK-5250,PAYLOAD,2023-08-06 11:11:45,15.08836832,0.0001129,53.215,281.6469,96.8203,263.2918,1.1971e-05,-9.7e-07,0.0,0 STARLINK-5250,1 54200U 22141AV  23218.46649379 -.00000097  00000-0  11971-4 0  9995,2 54200  53.2150 281.6469 0001129  96.8203 263.2918 15.08836832 43389,6917.89,95.438,540.536,538.974,0.0
54200.0,STARLINK-5250,PAYLOAD,2023-08-07 12:37:54,15.08855859,0.0001149,53.2158,276.8905,103.8332,256.2788,-0.00055167,-9.061e-05,0.0,0 STARLINK-5250,1 54200U 22141AV  23219.52632645 -.00009061  00000-0 -55167-3 0  9996,2 54200  53.2158 276.8905 0001149 103.8332 256.2788 15.08855859 43547,6917.832,95.437,540.492,538.902,0.0
54200.0,STARLINK-5250,PAYLOAD,2023-08-08 10:53:19,15.08837279,0.0001172,53.2165,272.7275,100.6269,259.4855,0.00014587,2.034e-05,0.0,0 STARLINK-5250,1 54200U 22141AV  23220.45370042  .00002034  00000-0  14587-3 0  9992,2 54200  53.2165 272.7275 0001172 100.6269 259.4855 15.08837279 43681,6917.889,95.438,540.564,538.943,0.0
54200.0,STARLINK-5250,PAYLOAD,2023-08-08 14:04:05,15.08847988,0.0001144,53.2163,272.1325,98.587,261.5251,0.00024186,3.564e-05,0.0,0 STARLINK-5250,1 54200U 22141AV  23220.58617107  .00003564  00000-0  24186-3 0  9997,2 54200  53.2163 272.1325 0001144  98.5870 261.5251 15.08847988 43706,6917.856,95.437,540.512,538.93,0.0
54200.0,STARLINK-5250,PAYLOAD,2023-08-08 20:25:38,15.08833323,0.0001392,53.2156,270.943,85.5924,274.5228,4.3779e-05,4.09e-06,0.0,0 STARLINK-5250,1 54200U 22141AV  23220.85114225  .00000409  00000-0  43779-4 0  9995,2 54200  53.2156 270.9430 0001392  85.5924 274.5228 15.08833323 43742,6917.901,95.438,540.729,538.803,0.0
54200.0,STARLINK-5250,PAYLOAD,2023-08-09 09:08:45,15.08808969,0.0001123,53.2151,268.5637,86.3851,273.727,-0.00038343,-6.38e-05,0.0,0 STARLINK-5250,1 54200U 22141AV  23221.38107739 -.00006380  00000-0 -38343-3 0  9992,2 54200  53.2151 268.5637 0001123  86.3851 273.7270 15.08808969 43824,6917.975,95.44,540.617,539.063,0.0
54200.0,STARLINK-5250,PAYLOAD,2023-08-10 02:37:59,15.08826324,7.95e-05,53.2152,265.2905,103.5846,256.5234,0.00022371,3.273e-05,0.0,0 STARLINK-5250,1 54200U 22141AV  23222.10972049  .00003273  00000-0  22371-3 0  9997,2 54200  53.2152 265.2905 0000795 103.5846 256.5234 15.08826324 43933,6917.922,95.438,540.337,539.237,0.0
54200.0,STARLINK-5250,PAYLOAD,2023-08-10 12:10:18,15.08845704,0.0001046,53.2152,263.5089,93.4233,266.6878,0.0010547,0.0001654,0.0,0 STARLINK-5250,1 54200U 22141AV  23222.50716154  .00016540  00000-0  10547-2 0  9996,2 54200  53.2152 263.5089 0001046  93.4233 266.6878 15.08845704 43999,6917.863,95.437,540.452,539.004,0.0
54200.0,STARLINK-5250,PAYLOAD,2023-08-11 13:36:27,15.08878579,0.0001034,53.2145,258.7503,92.1074,268.0036,0.00094453,0.00014792,0.0,0 STARLINK-5250,1 54200U 22141AV  23223.56698464  .00014792  00000-0  94453-3 0  9992,2 54200  53.2145 258.7503 0001034  92.1074 268.0036 15.08878579 44151,6917.762,95.435,540.343,538.912,0.0
54200.0,STARLINK-5250,PAYLOAD,2023-08-12 08:41:04,15.08853125,0.0001037,53.2146,255.1825,91.6794,268.4317,0.0002016,2.923e-05,0.0,0 STARLINK-5250,1 54200U 22141AV  23224.36186260  .00002923  00000-0  20160-3 0  9994,2 54200  53.2146 255.1825 0001037  91.6794 268.4317 15.08853125 44275,6917.84,95.437,540.423,538.988,0.0
54200.0,STARLINK-5250,PAYLOAD,2023-08-13 06:56:28,15.08847118,0.0001129,53.2147,251.0182,85.804,274.3081,0.00021621,3.155e-05,0.0,0 STARLINK-5250,1 54200U 22141AV  23225.28922160  .00003155  00000-0  21621-3 0  9994,2 54200  53.2147 251.0182 0001129  85.8040 274.3081 15.08847118 44413,6917.859,95.437,540.505,538.943,0.0
54200.0,STARLINK-5250,PAYLOAD,2023-08-14 05:11:52,15.088352,0.0001318,53.2157,246.8554,65.8402,294.2727,-7.7729e-05,-1.525e-05,0.0,0 STARLINK-5250,1 54200U 22141AV  23226.21658545 -.00001525  00000-0 -77729-4 0  9993,2 54200  53.2157 246.8554 0001318  65.8402 294.2727 15.08835200 44551,6917.895,95.438,540.672,538.848,0.0
